{"type": "FeatureCollection", "features": [{"type": "Feature", "geometry": {"type": "Point", "coordinates": [86.6, 26.4]}, "properties": {"name": "Kosi flood", "type": "flood", "year": 2008, "deaths": 500}}, {"type": "Feature", "geometry": {"type": "Point", "coordinates": [76.6, 9.9]}, "properties": {"name": "Kerala floods", "type": "flood", "year": 2018, "deaths": 480}}, {"type": "Feature", "geometry": {"type": "Point", "coordinates": [72.85, 19.07]}, "properties": {"name": "Mumbai floods", "type": "flood", "year": 2005, "deaths": 1000}}, {"type": "Feature", "geometry": {"type": "Point", "coordinates": [80.27, 13.08]}, "properties": {"name": "Chennai floods", "type": "flood", "year": 2015, "deaths": 500}}, {"type": "Feature", "geometry": {"type": "Point", "coordinates": [74.8, 34.08]}, "properties": {"name": "Srinagar floods", "type": "flood", "year": 2014, "deaths": 300}}, {"type": "Feature", "geometry": {"type": "Point", "coordinates": [79.07, 30.73]}, "properties": {"name": "Kedarnath flood", "type": "flood", "year": 2013, "deaths": 6000}}, {"type": "Feature", "geometry": {"type": "Point", "coordinates": [79.7, 30.5]}, "properties": {"name": "Rishiganga flood", "type": "landslide", "year": 2021, "deaths": 200}}, {"type": "Feature", "geometry": {"type": "Point", "coordinates": [73.68, 19.16]}, "properties": {"name": "Malin landslide", "type": "landslide", "year": 2014, "deaths": 151}}, {"type": "Feature", "geometry": {"type": "Point", "coordinates": [76.13, 11.51]}, "properties": {"name": "Wayanad landslides", "type": "landslide", "year": 2024, "deaths": 250}}, {"type": "Feature", "geometry": {"type": "Point", "coordinates": [77.0, 10.0]}, "properties": {"name": "Pettimudi landslide", "type": "landslide", "year": 2020, "deaths": 70}}, {"type": "Feature", "geometry": {"type": "Point", "coordinates": [79.56, 30.55]}, "properties": {"name": "Joshimath subsidence", "type": "landslide", "year": 2023, "deaths": 0}}, {"type": "Feature", "geometry": {"type": "Point", "coordinates": [88.5, 27.7]}, "properties": {"name": "Sikkim glacial lake flood", "type": "landslide", "year": 2023, "deaths": 100}}, {"type": "Feature", "geometry": {"type": "Point", "coordinates": [70.2, 23.4]}, "properties": {"name": "Bhuj earthquake M7.7", "type": "earthquake", "year": 2001, "deaths": 13800}}, {"type": "Feature", "geometry": {"type": "Point", "coordinates": [76.5, 18.0]}, "properties": {"name": "Latur earthquake M6.2", "type": "earthquake", "year": 1993, "deaths": 9700}}, {"type": "Feature", "geometry": {"type": "Point", "coordinates": [76.3, 32.3]}, "properties": {"name": "Kangra earthquake M7.8", "type": "earthquake", "year": 1905, "deaths": 20000}}, {"type": "Feature", "geometry": {"type": "Point", "coordinates": [86.8, 26.8]}, "properties": {"name": "Bihar-Nepal earthquake M8.0", "type": "earthquake", "year": 1934, "deaths": 10000}}, {"type": "Feature", "geometry": {"type": "Point", "coordinates": [96.5, 28.5]}, "properties": {"name": "Assam-Tibet earthquake M8.6", "type": "earthquake", "year": 1950, "deaths": 1500}}, {"type": "Feature", "geometry": {"type": "Point", "coordinates": [78.8, 30.8]}, "properties": {"name": "Uttarkashi earthquake M6.8", "type": "earthquake", "year": 1991, "deaths": 770}}, {"type": "Feature", "geometry": {"type": "Point", "coordinates": [79.4, 30.4]}, "properties": {"name": "Chamoli earthquake M6.8", "type": "earthquake", "year": 1999, "deaths": 100}}, {"type": "Feature", "geometry": {"type": "Point", "coordinates": [88.2, 27.7]}, "properties": {"name": "Sikkim earthquake M6.9", "type": "earthquake", "year": 2011, "deaths": 110}}]}